{"type": "FeatureCollection", "features": [ {"type": "Feature", "properties": {"norad_id": 32289, "name": "YAOGAN-3", "group": "resource", "lat": 10.087728712300274, "lon": 7.71241651374004, "alt_km": 599.6752363245832, "timestamp": "2025-12-08T10:52:02.605935+00:00", "meta": {"OBJECT_NAME": "YAOGAN-3", "OBJECT_ID": "2007-055A", "EPOCH": "2025-12-07T23:32:18.180672", "MEAN_MOTION": 14.8982405, "ECCENTRICITY": 0.00014451, "INCLINATION": 97.8367, "RA_OF_ASC_NODE": 8.6487, "ARG_OF_PERICENTER": 76.6313, "MEAN_ANOMALY": 283.5066, "EPHEMERIS_TYPE": 0, "CLASSIFICATION_TYPE": "U", "NORAD_CAT_ID": 32289, "ELEMENT_SET_NO": 999, "REV_AT_EPOCH": 97738, "BSTAR": 0.0003301689, "MEAN_MOTION_DOT": 3.115e-05, "MEAN_MOTION_DDOT": 0}, "tle": {"line1": "1 32289U 07055A   25341.98076598  .00003115  00000+0  33017-3 0  9994", "line2": "2 32289  97.8367   8.6487 0001445  76.6313 283.5066 14.89824050977384"}}, "geometry": {"type": "Point", "coordinates": [7.71241651374004, 10.087728712300274]}}, {"type": "Feature", "properties": {"norad_id": 32376, "name": "COSMO-SKYMED 2", "group": "resource", "lat": 47.046473493259015, "lon": 155.2842689385692, "alt_km": 617.5383293865052, "timestamp": "2025-12-08T10:52:02.605947+00:00", "meta": {"OBJECT_NAME": "COSMO-SKYMED 2", "OBJECT_ID": "2007-059A", "EPOCH": "2025-12-07T23:18:41.298048", "MEAN_MOTION": 14.82156497, "ECCENTRICITY": 0.00015244, "INCLINATION": 97.8812, "RA_OF_ASC_NODE": 163.3668, "ARG_OF_PERICENTER": 86.3792, "MEAN_ANOMALY": 273.7596, "EPHEMERIS_TYPE": 0, "CLASSIFICATION_TYPE": "U", "NORAD_CAT_ID": 32376, "ELEMENT_SET_NO": 999, "REV_AT_EPOCH": 97367, "BSTAR": 0.00012571651, "MEAN_MOTION_DOT": 9.49e-06, "MEAN_MOTION_DDOT": 0}, "tle": {"line1": "1 32376U 07059A   25341.97131132  .00000949  00000+0  12572-3 0  9995", "line2": "2 32376  97.8812 163.3668 0001524  86.3792 273.7596 14.82156497973676"}}, "geometry": {"type": "Point", "coordinates": [155.2842689385692, 47.046473493259015]}}, {"type": "Feature", "properties": {"norad_id": 32382, "name": "RADARSAT-2", "group": "resource", "lat": 77.2462495215507, "lon": -54.730548707695846, "alt_km": 783.7360841247992, "timestamp": "2025-12-08T10:52:02.605957+00:00", "meta": {"OBJECT_NAME": "RADARSAT-2", "OBJECT_ID": "2007-061A", "EPOCH": "2025-12-07T22:44:13.785792", "MEAN_MOTION": 14.29985394, "ECCENTRICITY": 0.00010789, "INCLINATION": 98.5798, "RA_OF_ASC_NODE": 346.6072, "ARG_OF_PERICENTER": 92.0377, "MEAN_ANOMALY": 268.0929, "EPHEMERIS_TYPE": 0, "CLASSIFICATION_TYPE": "U", "NORAD_CAT_ID": 32382, "ELEMENT_SET_NO": 999, "REV_AT_EPOCH": 93862, "BSTAR": 6.899779e-05, "MEAN_MOTION_DOT": 1.34e-06, "MEAN_MOTION_DDOT": 0}, "tle": {"line1": "1 32382U 07061A   25341.94738178  .00000134  00000+0  68998-4 0  9995", "line2": "2 32382  98.5798 346.6072 0001078  92.0377 268.0929 14.29985394938626"}}, "geometry": {"type": "Point", "coordinates": [-54.730548707695846, 77.2462495215507]}}, {"type": "Feature", "properties": {"norad_id": 32783, "name": "CARTOSAT-2A", "group": "resource", "lat": -56.40056986789895, "lon": -159.48649718698212, "alt_km": 646.4284625277633, "timestamp": "2025-12-08T10:52:02.605969+00:00", "meta": {"OBJECT_NAME": "CARTOSAT-2A", "OBJECT_ID": "2008-021A", "EPOCH": "2025-12-07T22:25:53.632992", "MEAN_MOTION": 14.78922923, "ECCENTRICITY": 0.00121669, "INCLINATION": 97.7936, "RA_OF_ASC_NODE": 31.9082, "ARG_OF_PERICENTER": 19.8241, "MEAN_ANOMALY": 340.3441, "EPHEMERIS_TYPE": 0, "CLASSIFICATION_TYPE": "U", "NORAD_CAT_ID": 32783, "ELEMENT_SET_NO": 999, "REV_AT_EPOCH": 95053, "BSTAR": 0.00020281748, "MEAN_MOTION_DOT": 1.447e-05, "MEAN_MOTION_DDOT": 0}, "tle": {"line1": "1 32783U 08021A   25341.93464853  .00001447  00000+0  20282-3 0  9993", "line2": "2 32783  97.7936  31.9082 0012166  19.8241 340.3441 14.78922923950538"}}, "geometry": {"type": "Point", "coordinates": [-159.48649718698212, -56.40056986789895]}}, {"type": "Feature", "properties": {"norad_id": 33320, "name": "HUANJING 1A (HJ-1A)", "group": "resource", "lat": 33.548639386609054, "lon": -34.18582226941447, "alt_km": 602.7637945435763, "timestamp": "2025-12-08T10:52:02.605980+00:00", "meta": {"OBJECT_NAME": "HUANJING 1A (HJ-1A)", "OBJECT_ID": "2008-041A", "EPOCH": "2025-12-07T23:22:59.272896", "MEAN_MOTION": 14.83370889, "ECCENTRICITY": 0.00204187, "INCLINATION": 97.6538, "RA_OF_ASC_NODE": 330.4716, "ARG_OF_PERICENTER": 49.4553, "MEAN_ANOMALY": 310.8435, "EPHEMERIS_TYPE": 0, "CLASSIFICATION_TYPE": "U", "NORAD_CAT_ID": 33320, "ELEMENT_SET_NO": 999, "REV_AT_EPOCH": 93005, "BSTAR": 0.00029750269, "MEAN_MOTION_DOT": 2.397e-05, "MEAN_MOTION_DDOT": 0}, "tle": {"line1": "1 33320U 08041A   25341.97429714  .00002397  00000+0  29750-3 0  9998", "line2": "2 33320  97.6538 330.4716 0020418  49.4553 310.8435 14.83370889930052"}}, "geometry": {"type": "Point", "coordinates": [-34.18582226941447, 33.548639386609054]}}, {"type": "Feature", "properties": {"norad_id": 33321, "name": "HUANJING 1B (HJ-1B)", "group": "resource", "lat": -80.30026169999712, "lon": 102.89298139612227, "alt_km": 654.4949187602642, "timestamp": "2025-12-08T10:52:02.605991+00:00", "meta": {"OBJECT_NAME": "HUANJING 1B (HJ-1B)", "OBJECT_ID": "2008-041B", "EPOCH": "2025-12-07T22:20:44.038464", "MEAN_MOTION": 14.82801828, "ECCENTRICITY": 0.00382368, "INCLINATION": 97.6397, "RA_OF_ASC_NODE": 334.1397, "ARG_OF_PERICENTER": 91.0339, "MEAN_ANOMALY": 269.5256, "EPHEMERIS_TYPE": 0, "CLASSIFICATION_TYPE": "U", "NORAD_CAT_ID": 33321, "ELEMENT_SET_NO": 999, "REV_AT_EPOCH": 93006, "BSTAR": 0.00024834093, "MEAN_MOTION_DOT": 1.983e-05, "MEAN_MOTION_DDOT": 0}, "tle": {"line1": "1 33321U 08041B   25341.93106526  .00001983  00000+0  24834-3 0  9996", "line2": "2 33321  97.6397 334.1397 0038236  91.0339 269.5256 14.82801828930067"}}, "geometry": {"type": "Point", "coordinates": [102.89298139612227, -80.30026169999712]}}, {"type": "Feature", "properties": {"norad_id": 33331, "name": "GEOEYE 1", "group": "resource", "lat": 12.335388829229323, "lon": -124.42262700075283, "alt_km": 680.2118021633869, "timestamp": "2025-12-08T10:52:02.606002+00:00", "meta": {"OBJECT_NAME": "GEOEYE 1", "OBJECT_ID": "2008-042A", "EPOCH": "2025-12-07T22:37:45.425568", "MEAN_MOTION": 14.64802015, "ECCENTRICITY": 0.00028186, "INCLINATION": 98.1257, "RA_OF_ASC_NODE": 53.2834, "ARG_OF_PERICENTER": 298.008, "MEAN_ANOMALY": 62.0838, "EPHEMERIS_TYPE": 0, "CLASSIFICATION_TYPE": "U", "NORAD_CAT_ID": 33331, "ELEMENT_SET_NO": 999, "REV_AT_EPOCH": 92215, "BSTAR": 0.00020302456, "MEAN_MOTION_DOT": 1.035e-05, "MEAN_MOTION_DDOT": 0}, "tle": {"line1": "1 33331U 08042A   25341.94288687  .00001035  00000+0  20302-3 0  9992", "line2": "2 33331  98.1257  53.2834 0002818 298.0080  62.0838 14.64802015922155"}}, "geometry": {"type": "Point", "coordinates": [-124.42262700075283, 12.335388829229323]}}, {"type": "Feature", "properties": {"norad_id": 33396, "name": "THEOS", "group": "resource", "lat": -6.869567683101921, "lon": 41.71191462601084, "alt_km": 829.0195008644223, "timestamp": "2025-12-08T10:52:02.606013+00:00", "meta": {"OBJECT_NAME": "THEOS", "OBJECT_ID": "2008-049A", "EPOCH": "2025-12-07T21:22:19.746912", "MEAN_MOTION": 14.20094847, "ECCENTRICITY": 0.0001114, "INCLINATION": 98.5875, "RA_OF_ASC_NODE": 40.1231, "ARG_OF_PERICENTER": 100.5905, "MEAN_ANOMALY": 259.5398, "EPHEMERIS_TYPE": 0, "CLASSIFICATION_TYPE": "U", "NORAD_CAT_ID": 33396, "ELEMENT_SET_NO": 999, "REV_AT_EPOCH": 89081, "BSTAR": 7.9781134e-05, "MEAN_MOTION_DOT": 1.27e-06, "MEAN_MOTION_DDOT": 0}, "tle": {"line1": "1 33396U 08049A   25341.89050633  .00000127  00000+0  79781-4 0  9999", "line2": "2 33396  98.5875  40.1231 0001114 100.5905 259.5398 14.20094847890812"}}, "geometry": {"type": "Point", "coordinates": [41.71191462601084, -6.869567683101921]}}, {"type": "Feature", "properties": {"norad_id": 33412, "name": "COSMO-SKYMED 3", "group": "resource", "lat": -27.203314851190534, "lon": 8.707846921438831, "alt_km": 546.0779104387093, "timestamp": "2025-12-08T10:52:02.606024+00:00", "meta": {"OBJECT_NAME": "COSMO-SKYMED 3", "OBJECT_ID": "2008-054A", "EPOCH": "2025-12-07T21:11:09.795264", "MEAN_MOTION": 15.05281228, "ECCENTRICITY": 0.00157832, "INCLINATION": 97.8456, "RA_OF_ASC_NODE": 192.1928, "ARG_OF_PERICENTER": 190.4841, "MEAN_ANOMALY": 169.6058, "EPHEMERIS_TYPE": 0, "CLASSIFICATION_TYPE": "U", "NORAD_CAT_ID": 33412, "ELEMENT_SET_NO": 999, "REV_AT_EPOCH": 92814, "BSTAR": 0.00048252962, "MEAN_MOTION_DOT": 6.855e-05, "MEAN_MOTION_DDOT": 0}, "tle": {"line1": "1 33412U 08054A   25341.88275226  .00006855  00000+0  48253-3 0  9993", "line2": "2 33412  97.8456 192.1928 0015783 190.4841 169.6058 15.05281228928140"}}, "geometry": {"type": "Point", "coordinates": [8.707846921438831, -27.203314851190534]}}, {"type": "Feature", "properties": {"norad_id": 33446, "name": "YAOGAN-4", "group": "resource", "lat": 2.265212965549501, "lon": 92.90912305991361, "alt_km": 632.8986961364153, "timestamp": "2025-12-08T10:52:02.606035+00:00", "meta": {"OBJECT_NAME": "YAOGAN-4", "OBJECT_ID": "2008-061A", "EPOCH": "2025-12-07T19:29:28.070016", "MEAN_MOTION": 14.82658842, "ECCENTRICITY": 0.00140158, "INCLINATION": 97.9175, "RA_OF_ASC_NODE": 271.9595, "ARG_OF_PERICENTER": 340.0883, "MEAN_ANOMALY": 19.9782, "EPHEMERIS_TYPE": 0, "CLASSIFICATION_TYPE": "U", "NORAD_CAT_ID": 33446, "ELEMENT_SET_NO": 999, "REV_AT_EPOCH": 91730, "BSTAR": 0.00033913084, "MEAN_MOTION_DOT": 2.684e-05, "MEAN_MOTION_DDOT": 0}, "tle": {"line1": "1 33446U 08061A   25341.81213044  .00002684  00000+0  33913-3 0  9994", "line2": "2 33446  97.9175 271.9595 0014015 340.0883  19.9782 14.82658842917309"}}, "geometry": {"type": "Point", "coordinates": [92.90912305991361, 2.265212965549501]}}]}